0 FENGYUN 1C DEB
1 38509U 99025ESU 13281.89763427  .00023883  00000-0  23246-2 0   333
2 38509 098.3916 322.0276 0129473 352.4933 007.2812 14.86368791233966
0 FENGYUN 1C DEB
1 38509U 99025ESU 13285.33056873  .00030539  00000-0  29498-2 0   359
2 38509 098.3810 325.6505 0129557 341.4448 018.1694 14.86600224234471
0 FENGYUN 1C DEB
1 38509U 99025ESU 13295.89554435  .00034061  00000-0  32968-2 0   369
2 38509 098.4051 336.8876 0120091 311.7913 049.1026 14.87329923236048
